AQUA
1 27424U 02022A   02289.90068664  .00002918  00000-0  65628-3 0  1740
2 27424  98.1821 228.5036 0003105  92.9382 267.2172 14.57182512 24120